OBJECTID,X,Y,STORE_ADDRESS,CDC_STORE_LEVEL,CATEGORY,ZIP
1,-75.14773604327267,39.968628148099754,1022 N Marshall St,3.0,Certification,19123
2,-75.16445354487348,39.91652729144794,2654 S 10th St,1.0,Basic,19148
3,-75.1152078483196,40.03418656123922,5570 Rising Sun Ave,1.0,Basic,19120
4,-75.15794610470498,39.96056780272741,453 N 12th St,3.0,Certification,19123
5,-75.17225389140691,39.92602482257415,1551 Mckean St,2.0,Basic,19145
6,-75.15385413444437,39.93495014270125,1111 S 6th St,1.0,Basic,19147
7,-75.17916676376184,39.933100229183175,2050 Dickinson St,2.0,Basic,19146
8,-75.17125619957054,39.979017305305135,2201 W Oxford St,3.0,Enhanced,19121
9,-75.17256396917999,40.00257041498203,3101 N 26th St,3.0,Enhanced,19132
10,-75.17698617002291,39.982761075652725,1800 N 26Th St,3.0,Enhanced,19121
11,-75.12341182680147,39.99105070656781,2764-72 Kensington Ave,2.0,Basic,19134
12,-75.1747041840123,39.997092923647045,2655 W Sterner St,1.0,Basic,19132
13,-75.1926267387448,39.927298598229946,2800 Snyder Ave,2.0,Basic,19145
14,-75.15468470590592,39.961777562485,1009 Spring Garden St,3.0,Enhanced,19123
15,-75.1638511541991,40.00539245282174,3324 N 21st St,3.0,Enhanced,19140
16,-75.22912979906195,39.95439292829745,5356 Delancey Street,3.0,Certification,19143
17,-75.15109864413905,40.000805821400476,1327 W Wishart St,3.0,Enhanced,19132
18,-75.14863821802095,39.96383632120147,623 Fairmount Ave,3.0,Enhanced,19123
19,-75.23106492180064,39.937957852082334,1701 S 58th St,2.0,Basic,19143
20,-75.2189194705561,39.95619241766116,4847 Walnut St,3.0,Enhanced,19139
21,-75.22225397753091,39.962902277062454,5101 Race St,2.0,Basic,19139
22,-75.21643982534226,39.94016460199246,1360 S 51st St,3.0,Enhanced,19143
23,-75.21884913487298,39.940566308446606,1401 S 52nd St,2.0,Basic,19143
24,-75.2290734939223,39.96912298033945,5414 Wyalusing Ave,1.0,Basic,19131
25,-75.23026507001359,39.96389287689888,5501 Race Street,1.0,Basic,19139
26,-75.23812344215733,39.95550645486174,5800 Delancey St,3.0,Enhanced,19143
27,-75.17943235434052,39.993425157581456,2462 N 29Th St,3.0,Enhanced,19132
28,-75.23755617527533,39.92825458480885,1930 S 65Th St,2.0,Basic,19142
29,-75.16116126345084,39.9220674837408,853 Jackson St,3.0,Enhanced,19148
30,-75.22625713879997,39.941311263364895,5456 Warrington Ave,2.0,Basic,19143
31,-75.16571098228829,39.965730559431655,1700 Wallace St,3.0,Enhanced,19130
32,-75.1737350329493,40.02683646343046,264 W Queen Ln,3.0,Enhanced,19144
33,-75.2514466754991,39.97464991994153,6572 Lansdowne Ave,3.0,Enhanced,19151
34,-75.16869818846851,39.91910175732235,1300 W Porter St,3.0,Certification,19148
35,-75.12672753892238,39.98614072509348,2533 Emerald St,1.0,Basic,19125
36,-75.14928972573846,40.0641273301789,1949 72nd Ave,1.0,Basic,19138
37,-75.08928142623395,40.03263464720315,948 E Sanger St,1.0,Basic,19124
38,-75.08124067045159,40.035403536001574,6059 Castor Ave,3.0,Enhanced,19149
39,-75.06251865580037,40.05509454271783,7534 Castor Ave,2.0,Basic,19152
40,-75.23201720591638,39.95538814607466,5503 Spruce St,2.0,Basic,19139
41,-75.17094884973187,39.94438212546806,1739 South St,1.0,Basic,19146
42,-75.16048720458366,39.98528968738236,1643 W Diamond St,3.0,Enhanced,19121
43,-75.15885591708401,39.992391188917644,2568 N Bancroft St,2.0,Basic,19132
44,-75.14295099040834,40.02235678732104,4600 N 11th St,3.0,Enhanced,19140
45,-75.11744407427359,40.02075842365,419 East Wyoming Ave,2.0,Basic,19120
46,-75.17203723143895,39.925073113692044,1545 W. Passyunk Ave,1.0,Basic,19145
47,-75.22724544074532,39.924447783065794,6247 Elmwood Ave,2.0,Basic,19142
48,-75.1809200478903,39.99414575413495,3000 W Cumberland St,2.0,Basic,19132
49,-75.17286239869279,40.0042318699881,2615 W Allegheny Ave,1.0,Basic,19132
50,-75.11516025093178,39.99791638945277,800 E Willard St,2.0,Basic,19134
51,-75.1456949471651,39.994469703498176,2801 N 9th St,2.0,Basic,19133
52,-75.16894522327085,39.97142117346528,1945 Poplar St,3.0,Enhanced,19130
53,-75.13175142759344,40.02005237388728,328 W Annsbury St,1.0,Basic,19140
54,-75.10156271766235,40.04334276944955,546 Van Kirk St,3.0,Enhanced,19120
55,-75.18062567232718,39.995136972899374,2565 N 30th St,3.0,Enhanced,19132
56,-75.2281168075052,39.960454877868585,5343 Market St,3.0,Certification,19139
57,-75.11572489556193,39.99516499813707,3101 Kensington Avenue,3.0,Enhanced,19134
58,-75.12924286370884,39.99891682574429,3220 Front St,1.0,Basic,19140
59,-75.09062094782877,40.03347785452693,899 E Sanger St,1.0,Basic,19124
60,-75.21443414738619,39.948893999763754,4548 Baltimore Ave,2.0,Basic,19143
61,-75.21434454710794,39.94227707957802,1262 S 49th St,3.0,Enhanced,19143
62,-75.15718453282985,39.99386963325389,1555 W Oakdale St,1.0,Basic,19132
63,-75.13141964966603,40.0005033260604,3300 Mutter St,2.0,Basic,19140
64,-75.22713965168491,39.936677065872885,5700 Chester Ave,3.0,Enhanced,19143
65,-75.23234637442323,39.94771411409909,5445 Baltimore Avenue,3.0,Enhanced,19143
66,-75.22899639188608,39.98588012923829,5301 Euclid St,1.0,Basic,19131
67,-75.24191243154876,39.95622365009577,309 S 60th St,2.0,Basic,19143
68,-75.07795389352242,40.00609196993621,2350 Orthodox St,2.0,Basic,19137
69,-75.04119320474376,40.0307290821701,4424 Princeton Ave,1.0,Basic,19135
70,-75.13037738051398,39.97367346458835,460 Belgrade St,2.0,Basic,19125
71,-75.18209926583117,39.93715674910253,1240 S 23rd St,2.0,Basic,19146
72,-75.16896298652165,39.935981265172245,1200 S 15th St,1.0,Basic,19146
73,-75.09969435178562,39.997861673486064,2090 E Pacific St,2.0,Basic,19134
74,-75.13409483517935,39.98511881258591,147 W Dauphin St,3.0,Enhanced,19133
75,-75.15679236872771,39.93530503175719,1121 E Passyunk Ave,3.0,Enhanced,19147
76,-75.16379217174266,40.03434992507877,309 E Ashmead St,1.0,Basic,19144
77,-75.18341307799521,39.992936243332416,3120-28 W York St,3.0,Enhanced,19132
78,-75.14558202297509,39.99284007788248,811 W Lehigh Ave,2.0,Basic,19133
79,-75.16480435621541,39.96492595158611,1634 Mount Vernon St,3.0,Enhanced,19130
80,-75.21974782692243,39.94198579889641,5131 Chester Ave,2.0,Basic,19143
81,-75.23068807753695,39.921911374864735,6530 Elmwood Ave,3.0,Enhanced,19142
82,-75.16323462606191,39.99194909399233,2500 N 19Th St,2.0,Basic,19132
83,-75.18216393070665,39.93633223087853,1267 S 23rd St,1.0,Basic,19146
84,-75.14085485319619,39.982637793194776,412 Diamond St,3.0,Enhanced,19122
85,-75.23258055383958,39.9268856559053,6351 Woodland Ave,1.0,Basic,19142
86,-75.14450416376943,39.99527922798197,2865 N 8th St,3.0,Enhanced,19133
87,-75.18045986008045,39.922519756858954,2355 S Woodstock St,3.0,Enhanced,19145
88,-75.13975917181381,40.01733699316368,801 W Bristol St,1.0,Basic,19140
89,-75.13211299888523,39.97314938324311,1400 E Columbia Ave,3.0,Enhanced,19125
90,-75.24125264506557,39.91448061608021,7244 Elmwood Ave,1.0,Basic,19142
91,-75.16104972287643,39.916831120493775,2601 S 8th St,2.0,Certification,19148
92,-75.16460766249298,39.9152879276969,2747 S 10Th St,3.0,Certification,19148
93,-75.09963903977702,40.00033847685655,2000 Castor Ave,3.0,Enhanced,19134
94,-75.19566086604112,39.935219584706395,1501 S 31St St,2.0,Basic,19146
95,-75.1348219706757,39.98512703927509,162 W Dauphin St,3.0,Enhanced,19133
96,-75.11669887646843,40.00014469070585,701 E Ontario St,3.0,Enhanced,19134
97,-75.1740322378142,39.985389736961395,2440 W Norris St,3.0,Enhanced,19121
98,-75.17333124726348,39.99958616422024,2900 N 26Th St,2.0,Basic,19132
99,-75.17904206914555,39.94290248815372,755 S 22Nd St,1.0,Basic,19146
100,-75.14018134313086,39.98101907032976,312 W Norris St,3.0,Enhanced,19122
101,-75.15990805515843,39.98450138484626,2027 N 16th St,3.0,Enhanced,19121
102,-75.13043369489759,40.02319139441477,4729 N 3rd St,3.0,Enhanced,19120
103,-75.15541126319894,40.00984291462222,1627 W Erie Ave,1.0,Basic,19140
104,-75.153554468772,40.01114872804343,1540 W Butler St,3.0,Enhanced,19140
105,-75.16855811857674,39.97566554796535,2012 Ridge Ave,3.0,Enhanced,19121
106,-75.22396371693682,39.925395651137336,2561 S 61St St,2.0,Basic,19142
107,-75.0961717618377,40.048969271412055,6351 Rising Sun Ave,2.0,Basic,19111
108,-75.17445463688665,39.979361730621726,2400 W Oxford St,3.0,Enhanced,19121
109,-75.2356314929043,39.977818870515094,1660 N 57Th St,1.0,Basic,19131
110,-75.11688459983489,39.9888886119312,2085 E Cambria St,2.0,Basic,19134
111,-75.13092085697117,40.055340893455245,712 Oak Lane,2.0,Basic,19126
112,-75.13601772551635,39.98047679724551,172 W Norris St,3.0,Enhanced,19122
113,-75.13283699850234,40.00069848677526,3301 N 2Nd St,2.0,Basic,19140
114,-75.13655288656419,40.01474900940329,4171 N Fairhill St,1.0,Basic,19140
115,-75.11578353458458,39.99685909865769,767 East Allegheny Ave,2.0,Basic,19134
116,-75.1816882159726,39.98744055251393,2952 Ridge Ave,2.0,Basic,19121
117,-75.11151262294865,39.99746860365421,3257 Kensington Ave,3.0,Enhanced,19134
118,-75.0557455652981,40.06219942564781,8011 Castor Ave,3.0,Enhanced,19152
119,-75.1714226243902,39.93211308917447,1500 S 16Th St,1.0,Basic,19146
120,-75.16336955237519,40.04453835710027,5616 Chew Ave,3.0,Enhanced,19138
121,-75.17748523384532,39.98119101849857,2604 Cecil B Moore Ave,2.0,Basic,19121
122,-75.22693202245142,39.95046191957311,600 S 52nd St,2.0,Certification,19143
123,-75.23887671825699,39.964873639033605,5934 Race St,3.0,Enhanced,19139
124,-75.22231304012483,39.94800762300764,4922 Baltimore Ave,3.0,Enhanced,19143
125,-75.21396819300057,39.94593329169663,4700 Chester Ave,1.0,Basic,19143
126,-75.09943134137306,40.00733717961461,1443 E Luzerne St,2.0,Basic,19124
127,-75.0651556623505,40.05064061844417,2028 Cottman Ave,2.0,Basic,19149
128,-75.18005961446248,39.941806826992924,2243 Christian Street,3.0,Enhanced,19146
129,-75.13755836319272,39.99344205780263,323 W Somerset St,3.0,Enhanced,19133
130,-75.15488655659112,39.930796492778214,1414 S 6th St,1.0,Basic,19147
131,-75.20205593162845,39.96046412617317,401 N 40th St,2.0,Basic,19104
132,-75.16650713014455,39.976452959660094,1445 North 19th St,3.0,Enhanced,19121
133,-75.10862117804453,39.997019171212116,3339 Jasper St,3.0,Enhanced,19134
134,-75.1578273996447,40.052065653903725,6402 Wister St,2.0,Basic,19138
135,-75.15014948823884,40.0217474133233,4501 N 15Th St,1.0,Basic,19140
136,-75.15342217380429,40.04362335030496,1956 Nedro Avenue,2.0,Basic,19141
137,-75.11135775692544,39.99936304244851,942 E Ontario St,1.0,Basic,19134
138,-75.21038845885695,40.01991298279153,5255 Ridge Ave,3.0,Enhanced,19128
139,-75.1822298097782,39.98043463709684,2901 W Oxford St,3.0,Enhanced,19121
140,-75.22942345365475,39.984520031469295,1801 Georges Ln,2.0,Basic,19131
141,-75.2472448669427,39.97058851822344,6400 W Girard Ave,3.0,Enhanced,19151
142,-75.14271094336884,40.02703700495125,1116-18 Rockland St,2.0,Basic,19141
143,-75.16985169775795,40.02850620355353,147 W Hansberry St,1.0,Basic,19144
144,-75.22457851717475,39.956896295731774,5153 Walnut St,2.0,Certification,19139
145,-75.16579550373585,39.92468495593423,2015 S 12th St,3.0,Enhanced,19148
146,-75.13700275095074,39.993364950762256,301 West Somerset St.,3.0,Enhanced,19133
147,-75.15538752421209,40.005137913692714,3401 N 16th St,3.0,Certification,19140
148,-75.0318916921955,40.03178617666829,7417 Torresdale Ave,3.0,Enhanced,19136
149,-75.22051607691142,39.96711743531494,850 N 50th St,1.0,Basic,19139
150,-75.11997385259716,39.99282796036425,2907 Kensington Ave,3.0,Enhanced,19134
151,-75.23783959556238,39.987925665974394,5731 Malvern Ave,2.0,Basic,19131
152,-75.1573447780183,39.927018710346964,1724 South 7Th St 1st Fl,1.0,Basic,19148
153,-75.18219234094606,39.92886973329705,1838 S 22nd St,1.0,Basic,19145
154,-75.17883397063328,39.927181708371336,1941 S 20th St,1.0,Basic,19145
155,-75.17551615907814,39.927639253441626,1901 S 18Th St,2.0,Basic,19145
156,-75.16009378244348,39.99154282643185,2500 N 17th St,2.0,Basic,19132
157,-75.1284217508039,39.972695006820686,543 E Thompson St,3.0,Certification,19125
158,-75.12702338948688,40.04383603785264,400 W Spencer St,3.0,Enhanced,19120
159,-75.08163599513496,40.012754381398786,1801 Orthodox St,3.0,Enhanced,19124
160,-75.05083662457581,40.02800467885514,6663 Walker St.,3.0,Enhanced,19135
161,-75.06404442735736,40.015146723105225,5537 Torresdale Ave,1.0,Basic,19124
162,-75.0470625757837,40.024761972133454,4620 Unruh Ave,3.0,Enhanced,19135
163,-75.15775103057715,39.93974815203892,800 S 9th St,3.0,Enhanced,19147
164,-75.16390754740445,39.98837945901874,2267 North 19th St.,3.0,Enhanced,19132
165,-75.16706400918991,39.997681520949314,2831 N 22nd St,2.0,Basic,19132
166,-75.21400833885093,39.949013549928345,4523 Baltimore Ave,2.0,Basic,19143
167,-75.17373768773906,39.99020275020131,2300 N 25th St,3.0,Enhanced,19132
168,-75.12804630251826,39.995278199963906,3000 A St,2.0,Basic,19134
169,-75.10805709178062,39.99732077433423,3359 Jasper St.,2.0,Basic,19134
170,-75.22744155264027,39.95418585479229,5266 Delancey St,3.0,Enhanced,19143
171,-75.16906494313068,39.98097706996953,1753 N 21St St,1.0,Basic,19121
172,-75.23056513125901,39.92426066018007,6401 Grays Ave,1.0,Basic,19142
173,-75.11376283451531,39.98536465868887,2333 East Cambria St,3.0,Enhanced,19134
174,-75.16147860978691,40.00439569436615,1943 W Westmoreland St,3.0,Enhanced,19140
175,-75.12785709002722,40.02986426101057,235 W Duncannon Ave,3.0,Enhanced,19120
176,-75.1184059219207,40.03036587097126,5302 Rising Sun Ave,2.0,Basic,19120
177,-75.12356483215768,40.021429749539315,140 E Wyoming Ave,3.0,Enhanced,19120
178,-75.11544630247391,39.990600640282175,2975 Frankford Avenue,3.0,Enhanced,19134
179,-75.23876503959099,39.94881763796193,5736 Christian St,3.0,Enhanced,19143
180,-75.23970002206315,39.94740614179908,901 S 58th St,3.0,Enhanced,19143
181,-75.15202123747521,40.009333465747794,1414 W Erie Ave,1.0,Basic,19140
182,-75.10558937661818,39.98775988160444,2413 E Allegheny Ave,2.0,Basic,19134
183,-75.14841729381557,39.991317657965205,2562 Germantown Ave,3.0,Enhanced,19133
184,-75.14988878137774,40.02324389856842,1501 W Courtland St,2.0,Basic,19140
185,-75.18050688795067,39.936121993247674,1267 S 22Nd St,2.0,Basic,19146
186,-75.1407995230927,40.02841682431063,1025 W Ruscomb St,3.0,Enhanced,19141
187,-75.1781254237148,39.93048819512394,1701 S 20th St,2.0,Basic,19145
188,-75.23219510718161,39.92703777731389,6316 Woodland Ave,3.0,Enhanced,19142
189,-75.0713894027374,40.05431496093604,1701 Cottman Ave,2.0,Basic,19111
190,-75.1562975492131,39.986477691258564,2208 N Broad St,3.0,Certification,19132
191,-75.11661741219744,39.99523960768513,3099 Potter St,1.0,Basic,19134
192,-75.24239439343884,39.978767737683725,6101 W Jefferson St,1.0,Basic,19151
193,-75.23749264822858,39.97019740491092,5901 Girard Ave,2.0,Basic,19151
194,-75.14612743713738,40.0221176307016,4561 N 13Th St,1.0,Basic,19140
195,-75.11093180625979,40.01821657769835,4598 G St,3.0,Enhanced,19120
196,-75.12670867739358,40.02001135109296,4540 Rising Sun Ave,1.0,Basic,19140
197,-75.1542149719417,39.92657632412009,1724 S 5Th Street,3.0,Certification,19148
198,-75.15950393714816,39.91664380824133,2601 S 7Th St,3.0,Enhanced,19148
199,-75.13456490103985,39.9913377736391,186 West Lehigh Ave,1.0,Basic,19133
200,-75.17013377283546,39.93010717189852,1649 South 15 Street,3.0,Certification,19145
201,-75.13689059616433,40.01369622964445,4100 N Fairhill St,1.0,Basic,19140
202,-75.23376940713791,39.91984753113039,6731 Elmwood Ave,3.0,Enhanced,19142
203,-75.23912622961387,39.915968707857644,7110 Elmwood Ave,2.0,Basic,19142
204,-75.12977609431222,40.027655690645695,326 W Ashdale St,1.0,Basic,19120
205,-75.11038198289651,39.99479319895511,3234 Emerald St,3.0,Enhanced,19134
206,-75.11898217812622,39.99882505061355,600 E Westmoreland St,3.0,Enhanced,19134
207,-75.1328945726951,39.9880329800593,145 W Cumberland,3.0,Enhanced,19133
208,-75.14185454964738,40.00972925081805,3801 N Darien St,3.0,Enhanced,19140
209,-75.06865021804366,40.02038031434833,5456 Erdrick St,2.0,Basic,19124
210,-75.17160095370986,39.984483818120104,1959 North 23rd St,2.0,Basic,19121
211,-75.23427736630302,39.96437182634121,200 N 57th St,2.0,Basic,19139
212,-75.17612652748377,40.02355017103412,5237 Laurens St,3.0,Enhanced,19144
213,-75.1639970678491,39.97800032860607,1738 W Oxford St,3.0,Enhanced,19121
214,-75.150191030084,39.99171791636272,1118 W Huntingdon St,1.0,Basic,19133
215,-75.17523691411182,40.04882990749503,457 E Washington Ln,1.0,Basic,19144
216,-75.23521104668606,39.925035512214095,6531 Woodland Ave,3.0,Enhanced,19142
217,-75.1063404420021,40.032020533868774,5271 Howland St,1.0,Basic,19124
218,-75.2440876296043,39.965606366965936,6201 Race St,2.0,Basic,19139
219,-75.15464931185427,40.004968049902175,1520 W Ontario St,2.0,Basic,19140
220,-75.15264648712262,39.98751337132223,1213 W Dauphin St,3.0,Enhanced,19133
221,-75.21668057089411,40.03481829242043,6160 Ridge Ave.,2.0,Basic,19128
222,-75.14791759197203,40.032464938909676,5200 N 15th St,1.0,Basic,19141
223,-75.10950627008332,39.98252480220994,2600 E Ann Street,3.0,Enhanced,19134
224,-75.17590615936837,39.93711580575511,1946 Federal St,2.0,Basic,19146
225,-75.1412181064739,39.99697179744089,3000 N 6th St,3.0,Enhanced,19133
226,-75.2445253983887,39.97550402929468,6225 Lansdowne Ave,1.0,Basic,19151
227,-75.13493927165358,40.00250743626083,3401 N 3Rd St,2.0,Basic,19140
228,-75.18059065306586,39.92875749824445,1826 S 21St St,2.0,Basic,19145
229,-75.11767231079907,39.99761968091148,658 E Hilton St,3.0,Enhanced,19134
230,-75.13354115433799,39.9838677652446,2218 N Howard St,2.0,Basic,19133
231,-75.1386947569667,39.996568990111726,440 W Indiana Ave,3.0,Enhanced,19133
232,-75.14262211243792,39.99836785291989,3064 N 7th St,3.0,Enhanced,19133
233,-75.14235203387845,39.973799283498074,1500 N 4Th St,3.0,Certification,19122
234,-75.1306526163654,40.03558527103772,5549 N 5th St,1.0,Basic,19120
235,-75.09996718348965,39.998985665207584,3643 Frankford Ave,3.0,Enhanced,19134
236,-75.1236411635023,40.04497695016147,200 W Godfrey Ave,2.0,Basic,19120
237,-75.1212319346794,39.99224425663209,2850 Kensington Ave,2.0,Basic,19134
238,-75.10332364801539,39.99678985448053,3501 Frankford Ave,3.0,Enhanced,19134
239,-75.14050458410286,40.01108989965408,3900 North Franklin Street,1.0,Basic,19140
240,-75.14720139756523,39.98292873122851,2063 N 8th St,1.0,Basic,19122
241,-75.11767118232606,39.999085030300385,664 E Cornwall St,2.0,Certification,19134
242,-75.15832677489426,39.922044373982146,2135 S 7Th St,1.0,Basic,19148
243,-75.12941256696213,39.997609072527524,3123 N Front St,3.0,Enhanced,19133
244,-75.16091895706174,39.92484974472081,1945 S 9th St,3.0,Certification,19148
245,-75.03749777484519,40.08144049704163,1916 Welsh Rd Ste 11,3.0,Enhanced,19115
246,-75.15412863063355,39.92647018197334,1741 S 5Th St,2.0,Basic,19148
247,-75.18278754402544,39.93397482774545,1438 S 23rd St,1.0,Basic,19146
248,-75.11473106327371,39.99986477023278,3401 G St,3.0,Enhanced,19134
249,-75.16738572384499,39.996720938609855,2768 N 22nd St,3.0,Enhanced,19132
250,-75.23744512937098,39.96789879266497,401 N 59th St,2.0,Basic,19151
251,-75.12720337209065,40.001501684221246,177 E Ontario St,1.0,Basic,19134
252,-75.1409326564155,40.00952751283585,734 W Butler St,1.0,Basic,19140
253,-75.12411288750613,40.00110654115786,315 E Ontario St,3.0,Enhanced,19134
254,-75.17461030048766,39.96730332294221,2244 Fairmount Ave,2.0,Basic,19130
255,-75.04116043275795,40.03084232283993,4419 Princeton Ave,3.0,Enhanced,19135
256,-75.17382415709068,40.036791527795465,35 E Chelten Avestore A,2.0,Basic,19144
257,-75.17382415709068,40.036791527795465,35 E Chelten Ave,2.0,Basic,19144
258,-75.17603041846162,39.93319357233538,1426 S 19th St,1.0,Basic,19146
259,-75.1394257549477,40.012508120269686,4001 N 7Th St,3.0,Enhanced,19140
260,-75.08517955981549,40.06011148966393,7223 Rising Sun Ave,3.0,Enhanced,19111
261,-75.15434656683645,39.962254170165615,551 N 10th St,3.0,Enhanced,19123
262,-75.13755110172791,40.013782247973964,4100 N 6Th St,1.0,Basic,19140
263,-75.15342867723018,40.029522663765114,1801 W Albanus St,1.0,Basic,19141
264,-75.14056595423973,39.993825616338036,2800 N Reese Street,2.0,Basic,19133
265,-75.12450356283142,39.98479978886285,2572 Frankford Ave,3.0,Enhanced,19125
266,-75.25301010588589,39.97638936122932,6621 Lebanon Ave,3.0,Enhanced,19151
267,-75.16283351908473,40.02270277252399,4562 Wayne Ave,3.0,Enhanced,19144
268,-75.12738777393619,40.04176583668644,5963 N 4Th St,1.0,Basic,19120
269,-75.10724143437943,40.02727763527885,5144 Whitaker Ave,1.0,Basic,19124
270,-75.21234086797173,39.94123962243301,4837 Woodland Ave,3.0,Certification,19143
271,-75.19642397435395,39.96591474829696,3701 Fairmount Ave,3.0,Enhanced,19104
272,-75.15576044990888,40.022469414539046,4500 N Gratz St,2.0,Basic,19140
273,-75.17778071141072,40.03485513318081,5810 Greene Stste 1,1.0,Basic,19144
274,-75.221588933074,39.96125867804937,5027 Arch St,3.0,Enhanced,19139
275,-75.11805489880558,40.030789371618006,5324 Rising Sun Ave,1.0,Basic,19120
276,-75.16670641805248,39.920999916357005,2314 S 12Th St,3.0,Enhanced,19148
277,-75.24139436804538,39.92908633231777,1772 S 65Th St,1.0,Basic,19142
278,-75.14662669040935,40.03025994396464,5035 N Broad St,3.0,Enhanced,19141
279,-75.16205854696094,39.92009848592773,2330 S 9th St,2.0,Basic,19148
280,-75.19130828120754,39.96222722202809,3401 Hamilton St,3.0,Enhanced,19104
281,-75.10981965621204,39.988350938697295,2300 E Clearfield,3.0,Enhanced,19134
282,-75.08010434484012,40.018461892409526,1647 Harrison St,2.0,Basic,19124
283,-75.17343466087459,39.940976172440976,1847 Christian St,2.0,Basic,19146
284,-75.06951734050426,40.05323554823979,1805 Cottman Ave,2.0,Basic,19111
285,-75.10086747230795,40.00639223572569,3939 M St,1.0,Basic,19124
286,-75.1782352110559,40.04095577532711,25 E Walnut Ln,2.0,Basic,19144
287,-75.23292575690915,39.941516738647046,5700 Hadfield St,2.0,Basic,19143
288,-75.12764494051346,40.00300657324277,118 E Tioga St,3.0,Enhanced,19134
289,-75.12827651066438,40.00309003769761,100 E Tioga St,2.0,Basic,19134
290,-75.12057790545227,39.995853560002615,3101 Rorer St,3.0,Enhanced,19134
291,-75.12311983314339,40.02296762984754,146 E. Louden St,1.0,Basic,19120
292,-75.13350949935578,40.01797139669272,426 W Cayuga St,3.0,Enhanced,19140
293,-75.24301458006924,39.95148062865151,648 S 60th St,3.0,Enhanced,19143
294,-75.11595482623899,39.997380625019495,769 E Hilton St,2.0,Basic,19134
295,-75.16232962364434,39.9659691475645,655 N 15th St,1.0,Basic,19130
296,-75.1147298483221,39.99581061337561,3130 Kensington Ave,2.0,Basic,19134
297,-75.24996178722226,39.98877241892703,2123 N 63Rd St,2.0,Basic,19151
298,-75.22721997323747,39.98009160551129,5256 W Jefferson St,2.0,Basic,19131
299,-75.11377176129712,39.99291665202345,3101 Emerald St,3.0,Enhanced,19134
300,-75.13940859988807,39.9959802496871,2952 N 5th St,3.0,Certification,19133
301,-75.1646184204113,39.99992725146322,2066 W Indiana Ave,2.0,Basic,19132
302,-75.10954812133798,39.9847305996524,2501 E Indiana Ave,3.0,Enhanced,19134
303,-75.17290188269584,40.00106717361885,3001 N 26Th St,3.0,Enhanced,19132
304,-75.1441246277043,39.997356126972925,801 W Indiana Ave,2.0,Basic,19133
305,-75.24035531476419,39.915117158611785,7200 Elmwood Ave,3.0,Enhanced,19142
306,-75.10181726666708,40.04453774302066,5921 Rising Sun Ave,3.0,Enhanced,19120
307,-75.13423048766867,39.99454132440904,201 West Cambria St,3.0,Enhanced,19133
308,-75.17611461948273,40.02785108359997,301 W Coulter St,1.0,Basic,19144
309,-75.15362291780578,40.047340221654174,2001 W Spencer St,3.0,Enhanced,19138
310,-75.1707323219495,39.96504134678223,2001 Green Street,3.0,Certification,19130
311,-75.16440574996243,39.98740103680587,1907 W Susquehanna Ave,2.0,Basic,19121
312,-75.17456655156357,39.984009629588954,2451 W Berks St,2.0,Basic,19121
313,-75.2008902052301,39.97302677440809,3874 Poplar St,1.0,Basic,19104
314,-75.07645722939499,40.01642558305445,1838 Harrison St,2.0,Basic,19124
315,-75.13010179022793,40.038045193091456,5701 N 5th St,3.0,Certification,19120
316,-75.10972885182676,39.98839785608981,2301 E Clearfield St,2.0,Basic,19134
317,-75.12710347325181,40.02864836142426,5134 N 2nd St,1.0,Basic,19120
318,-75.12144944878412,40.044792254932695,143 West Godfrey Ave,1.0,Basic,19120
319,-75.17253999134655,40.039595487752905,301 E Price St,1.0,Basic,19144
320,-75.22699091402403,39.925373272029255,2435 S 62nd St,2.0,Basic,19142
321,-75.15649747350861,40.00012165766473,3061 N 16th St,2.0,Basic,19132
322,-75.22525611003935,39.93811803425229,5535 Chester Ave,3.0,Enhanced,19143
323,-75.16238070202107,39.925526014093634,1913 S 10Th St,1.0,Basic,19148
324,-75.13648879448557,40.026225945044864,700 W Rockland St,2.0,Basic,19120
325,-75.21561842155107,39.944888871551434,4823 Chester Ave,3.0,Certification,19143
326,-75.11104231316925,39.99940720853579,965 E Ontario St,2.0,Basic,19134
327,-75.14113265456879,40.013542769660944,4056 N Darien St,3.0,Enhanced,19140
328,-75.11931594826441,39.997227503078754,600 E Allegheny Ave,1.0,Basic,19134
329,-75.11755190552049,39.99655553884549,3130 F St,3.0,Enhanced,19134
330,-75.14714632951038,40.04338770755109,1601 Nedro Ave,2.0,Basic,19141
331,-75.22468677113072,39.96576180070738,315 N 52nd Street,2.0,Basic,19139
332,-75.15258482054807,39.91742428501051,2438 S 3Rd St,2.0,Basic,19148
333,-75.16134302827366,39.993225066855274,2600 N 18th St,3.0,Enhanced,19132
334,-75.12913570442076,40.001670497648114,106 W Ontario St,3.0,Enhanced,19140
335,-75.24476208155124,39.983871420441496,6154 Lancaster Ave,1.0,Basic,19151
336,-75.16259203307251,39.917658087156155,2554 S 9Th St,3.0,Enhanced,19148
337,-75.15969193218562,40.05710375811175,6672 Cornelius St,2.0,Basic,19138
338,-75.13903014438755,39.98882487441023,401 W Cumberland St,3.0,Enhanced,19133
339,-75.13145438436551,40.03189155011189,5301 N 5th St,3.0,Enhanced,19120
340,-75.17698735555035,39.92827478329257,1825 S 19Th St,2.0,Basic,19145
341,-75.17423583436684,39.93407382059385,1344 S. 18th Street,2.0,Basic,19146
342,-75.2327669450218,39.94382366021157,1135 S 56Th St,2.0,Basic,19143
343,-75.03557948375166,40.035901132795246,4300 Loring St,2.0,Basic,19136
344,-75.12035407330019,40.02425617918599,253 E Rockland St,3.0,Enhanced,19120
345,-75.18448930882465,39.97785367325592,1400 N 30th St,2.0,Basic,19121
346,-75.13654839375741,40.01528474363383,4200 N Fairhill St,2.0,Basic,19140
347,-75.11701306741612,40.00121599695932,3469 Keim St,2.0,Basic,19134
348,-75.17339220680428,40.0261962658246,5254 Pulaski Ave,2.0,Basic,19144
349,-75.17855285230645,39.94153482940545,2148 Christian St,2.0,Basic,19146
350,-75.22338779486928,39.93791937603479,1550 S 55th St,2.0,Basic,19143
351,-75.24295125851457,39.96849904604753,6152 Callowhill St,2.0,Basic,19151
352,-75.1587411676888,39.989838924887316,2401 N 16th St,3.0,Enhanced,19132
353,-75.1591788011734,39.93271859681729,1309 S 9th St,1.0,Basic,19147
354,-75.11593757066927,40.02322844059597,4863 D St,3.0,Enhanced,19120
355,-75.11541398472323,39.99481761734983,1813 E Clearfield St,3.0,Enhanced,19134
356,-75.16616272597565,39.93085353918652,1548 S 13th Street,1.0,Basic,19147
357,-75.17043686206468,39.93448520674595,1540 Wharton St,3.0,Enhanced,19146
358,-75.17051302440302,39.93579980826237,1213 S 16th St,1.0,Basic,19146
359,-75.1686492825251,39.93434382660257,1429 Wharton St,2.0,Basic,19146
360,-75.13316525032542,40.002185082513755,212 W Ontario St,1.0,Basic,19140
361,-75.14532398877283,39.977127733755204,601 Cecil B Moore Ave,1.0,Basic,19122
362,-75.20392904145135,39.972345424353584,1013 N 40th St,2.0,Basic,19104
363,-75.14408846582992,39.97013307085682,423 W Girard Ave,1.0,Basic,19123
364,-75.12019007470022,40.02267247281571,4800 B St,2.0,Basic,19120
365,-75.10618551061879,39.99627869326879,2023 E Ontario St,3.0,Enhanced,19134
366,-75.14614530924766,40.029471122245006,5010 Old York Rd,3.0,Enhanced,19141
367,-75.13184840590071,39.986340072104475,2401 N Front St,3.0,Certification,19133
368,-75.18708177504995,40.0370902450419,280 W Washington Ln,1.0,Basic,19144
369,-75.17806412012149,39.99703221171072,2837 West Lehigh Avenue,3.0,Enhanced,19132
370,-75.12929339521185,39.98339922802103,2033 E York St,2.0,Basic,19125
371,-75.2362511937753,39.92429740433826,6629 Woodland Ave,3.0,Enhanced,19142
372,-75.14338403019899,39.965349305875826,326 Poplar St,2.0,Basic,19123
373,-75.2428099728575,39.92637919957792,1838 S 68th St,3.0,Enhanced,19142
374,-75.09920921419787,40.011994108549736,1412 E Bristol St,2.0,Basic,19124
375,-75.16235351551738,39.914996967129134,2746 S Darien St,3.0,Enhanced,19148
376,-75.08027008773426,40.04492614053328,1201 Magee Ave,3.0,Enhanced,19111
377,-75.13882628698178,39.98726844168823,313 W York St,3.0,Enhanced,19133
378,-75.15804871034568,39.916455232618866,2600 S 6Th St,2.0,Basic,19148
379,-75.14494873834505,39.99838048155551,3062 N 9th St,3.0,Enhanced,19133
380,-75.10409084574582,39.99938639585307,3539 Jasper St,3.0,Enhanced,19134
381,-75.16489910657434,39.98738440045996,1920 W Susquehanna Ave,3.0,Enhanced,19121
382,-75.12938389923943,39.983351967084396,2036 E York St,1.0,Basic,19125
383,-75.09118683312238,40.02266987324172,1034 Foulkrod St,3.0,Enhanced,19124
384,-75.15475072303613,39.92414529620615,1924 S 5Th St,2.0,Basic,19148
385,-75.16300328364004,39.92101980069207,951 Wolf St,2.0,Basic,19148
386,-75.0753817687303,40.01770466428703,1829 Wakeling St,1.0,Basic,19124
387,-75.11305240292832,40.00021505874876,875 E Russell St,3.0,Enhanced,19134
388,-75.10600009633573,40.00809325453873,1126 E Luzerne St,3.0,Enhanced,19124
389,-75.21794289205609,40.03065691357083,391 Lyceum,2.0,Basic,19128
390,-75.21039920658792,40.024695012632954,458 Markle St,3.0,Enhanced,19128
391,-75.23543276223968,39.94842829558441,801 S 56th St,3.0,Enhanced,19143
392,-75.14296296265132,40.00987110098179,911 W Butler St,2.0,Basic,19140
393,-75.12084947052521,39.991010665640204,1854 Hart Ln,3.0,Enhanced,19134
394,-75.17252653048094,40.044507914629534,461 E High St,1.0,Basic,19144
395,-75.11057013135226,40.01932250878276,4669 G St,3.0,Enhanced,19120
396,-75.24991180786563,39.988679442804546,2117 N 63rd St,3.0,Enhanced,19151
397,-75.08483055453098,40.00944932356008,1900 Church St,1.0,Basic,19124
398,-75.1142388696082,39.99120013460049,3050 Frankford Ave,3.0,Enhanced,19134
399,-75.11646276404306,40.017888919842,4566 D Street,1.0,Basic,19120
400,-75.07624873038176,40.00766408436712,2300 Margaret Street,1.0,Basic,19137
401,-75.13959457361095,39.9946147589132,2863 N 5Th St,3.0,Enhanced,19133
402,-75.15432572414963,39.932826022359336,1229 S 6th St,3.0,Enhanced,19147
403,-75.21770924775494,39.9485212824512,4726 Baltimore Ave,2.0,Basic,19143
404,-75.24201223845965,39.962174523200545,6033 Market St,2.0,Basic,19139
405,-75.1264275301979,40.00131472405451,208 E Ontario St,1.0,Basic,19134
406,-75.15300310353865,39.99533943802216,1328 West Somerset St,2.0,Basic,19132
407,-75.16729655057294,39.98075786842318,1752 N 20th St,2.0,Basic,19121
408,-75.23498819557919,39.974980653310865,1501 N 57Th St,2.0,Basic,19131
409,-75.14257317437438,39.99561882256666,647 West Cambria St,3.0,Enhanced,19133
410,-75.18198877154816,39.927196509681,2000 S Beechwood St,3.0,Enhanced,19145
411,-75.23455712910254,39.97209002629169,1300 N 57Th St,1.0,Basic,19131
412,-75.12306266275422,39.99616525009243,417 East Clearfield St,2.0,Basic,19134
413,-75.13826350298253,39.97232578377773,178 W Master St,3.0,Enhanced,19122
414,-75.23065420552435,39.97382828214119,5453 Master St,2.0,Basic,19131
415,-75.21847018566132,39.936689542417284,5358 Woodland Ave,2.0,Basic,19143
416,-75.15496242797681,40.05054762332915,2067 Medary Ave,3.0,Enhanced,19138
417,-75.13838390034074,40.054761711099374,1260 Oak Lane,3.0,Enhanced,19126
418,-75.13701609236162,39.981667120413974,2066 N 2nd St,3.0,Enhanced,19122
419,-75.16951054135231,39.98268618380921,1859 N Van Pelt St,2.0,Basic,19121
420,-75.2260641884677,39.95459925262279,300 S 52nd St,1.0,Basic,19143
421,-75.1735513448717,39.922293730080035,2300 S 16th St,2.0,Basic,19145
422,-75.12876750637162,39.99192939538826,2750 A St,3.0,Enhanced,19134
423,-75.10317721501332,40.03927307379589,599 E Godfrey Ave,3.0,Enhanced,19120
424,-75.13507215176038,39.980441693320735,147 W Norris St,3.0,Enhanced,19122
425,-75.16592654263346,39.93140044128244,1501 S 13th St,3.0,Enhanced,19147
426,-75.23026652536188,39.969059287944134,601 N 55Th St,3.0,Enhanced,19131
427,-75.14696350881155,39.98917921257695,2445 Germantown Ave,1.0,Basic,19133
428,-75.10453540723043,39.98640346715912,2530 E Allegheny Ave,3.0,Enhanced,19134
429,-75.21252857117814,39.95540367314426,4525 Walnut St,3.0,Enhanced,19139
430,-75.17310517336398,39.92916485522157,1754 S Chadwick St,2.0,Basic,19145
431,-75.16457396225512,39.92332408855529,1101 Cantrell St,1.0,Basic,19148
432,-75.12214870995115,40.02234952826363,4745 A St,2.0,Basic,19120
433,-75.22848131267578,39.95894234403952,5351 Chestnut St,2.0,Basic,19139
434,-75.15645090273019,40.022555749538974,4501 N 19Th St,1.0,Basic,19140
435,-75.13497806670529,39.978879411178454,1901 Waterloo St,3.0,Enhanced,19122
436,-75.11803979742061,40.020829191209714,405 E Wyoming,2.0,Basic,19120
437,-75.23187340356556,39.98607429445988,1921 N 54Th St,3.0,Enhanced,19131
438,-75.17633278350779,40.045476211302336,6201 Morton St,2.0,Basic,19144
439,-75.1301090277639,39.97708165470934,1638 E Berks St,1.0,Basic,19125
440,-75.16789006571936,39.96317467146265,1800 Spring Garden St,3.0,Certification,19130
441,-75.1789956862908,39.99490511626588,2563 N 29Th St,2.0,Basic,19132
442,-75.24377247791924,39.96712616424987,6201 Vine St,3.0,Enhanced,19139
443,-75.15937184043358,39.91726723495177,2553 S. 7th St.,1.0,Basic,19148
444,-75.22722472548223,39.94849293381142,715 S 52nd St,3.0,Enhanced,19143
445,-75.26918924791234,39.98000374383911,7596 Haverford Ave,2.0,Basic,19151
446,-75.15592267102485,40.043787380389595,5900 N 21St St,2.0,Basic,19138
447,-75.16275273639101,40.04416351913722,5600 Chew Ave,3.0,Enhanced,19138
448,-75.17483525591406,40.00439557409343,2724 W Allegheny Ave,2.0,Basic,19132
449,-75.11310229640112,40.02013423848597,626 E Wyoming Ave,2.0,Basic,19120
450,-75.16697086776132,39.99089997805421,2101 W York St,3.0,Enhanced,19132
451,-75.13316826491823,40.04155200770913,5882 N 7th St,2.0,Basic,19120
452,-75.13910645891269,40.0580746312027,6900 Old York Rd,3.0,Enhanced,19126
453,-75.1303739034275,40.03734163609617,5656 N 5th St,3.0,Certification,19120
454,-75.21376438402558,39.949039795044975,4517 Baltimore Ave,3.0,Enhanced,19143
455,-75.23191420308366,39.927229483582266,6306 Woodland Ave,3.0,Enhanced,19142
456,-75.17175663627414,39.99877093645808,2863 N 25th St,2.0,Basic,19132
457,-75.16354987099294,39.990470174707724,2400 N 19th St,2.0,Basic,19132
458,-75.16081069234427,39.988484001752205,1702 W Dauphin St,2.0,Basic,19132
459,-75.17147306966163,39.92959819434305,1542 Morris St,1.0,Basic,19145
460,-75.1441591716127,39.97014201362719,429 W Girard Ave,3.0,Enhanced,19123
461,-75.14398200235499,39.987935470403244,617 W York St,3.0,Enhanced,19133
462,-75.16869934212748,39.94030845362373,1544 Christian St,1.0,Basic,19146
463,-75.12611103234332,39.994992598516376,3000 B St,3.0,Enhanced,19134
464,-75.16983831674601,39.924273445695405,2110 S Broad St.,2.0,Basic,19145
465,-75.15241665986815,40.06328421644999,7153 Ogontz Ave,2.0,Basic,19138
466,-75.1731940973532,39.93483867270483,1718 Wharton St,3.0,Certification,19146
467,-75.14518716678256,39.98319700683606,642 Diamond St,1.0,Basic,19122
468,-75.18060294155582,39.980228049307776,2801 W Oxford St,1.0,Basic,19121
469,-75.13812708347149,40.0249967374588,4800 N 8th St,3.0,Enhanced,19120
470,-75.1587635393013,40.01361337398861,1900 W Hunting Park Ave,1.0,Basic,19140
471,-75.12500609101328,39.991820161248704,351 E Somerset St,2.0,Basic,19134
472,-75.14108971357977,39.96209860102413,717 N 2nd St,2.0,Basic,19123
473,-75.23234755964575,39.96977046375717,641 N 56th St,1.0,Basic,19131
474,-75.22983679176443,39.93890632193439,5701 Warrington Ave,2.0,Basic,19143
475,-75.15501672350256,40.01811520501328,4201 Germantown Ave,3.0,Enhanced,19140
476,-75.07903369970921,40.028593238335745,1601 E Cheltenham Ave,2.0,Basic,19124
477,-75.17475846565763,39.912097128894956,1528 Packer Ave,2.0,Basic,19145
478,-75.21562705297475,40.026216040781826,4200 Manayunk Ave,3.0,Enhanced,19128
479,-75.1569878701682,40.05197519275468,2139 E Chelten Ave,3.0,Enhanced,19138
480,-75.14170724598189,40.00011883123883,640 W Allegheny Ave,3.0,Enhanced,19133
481,-75.10511541662416,39.99887942567943,1901 E Tioga St,3.0,Enhanced,19134
482,-75.14993678531661,39.929863213009526,1425 E Moyamensing Ave,3.0,Enhanced,19147
483,-75.19155711116166,39.96409232536501,601 N 34th St,1.0,Basic,19104
484,-75.08381283317554,40.030446268431795,5451 Rutland St,1.0,Basic,19124
485,-75.14188108701404,39.984493330414274,501 W Susquehanna Ave,3.0,Enhanced,19122
486,-75.16898475754846,40.003640099036325,2400 W Allegheny Ave,3.0,Enhanced,19132
487,-75.11388131368774,39.98629306568967,2916 Tulip St,3.0,Enhanced,19134
488,-75.13991091523306,40.00621447200215,621 W Venango St,3.0,Enhanced,19140
489,-75.11224624093077,39.986077502795936,2981 Memphis St,3.0,Enhanced,19134
490,-75.16771168932063,39.98718086952135,2163 N 21St St,2.0,Basic,19121
491,-75.1012621161867,39.99824597249339,3600 Frankford Ave,2.0,Basic,19134
492,-75.15928001235166,39.93222536653597,1341 S 9th St,3.0,Enhanced,19147
493,-75.15647377318638,39.98945806863138,1422 West York St.,3.0,Enhanced,19132
494,-75.13453708370257,40.017803293080675,4353 N 5Th St,3.0,Enhanced,19140
495,-75.14145130798545,39.99231368069911,2701 N Fairhill St,3.0,Enhanced,19133
496,-75.17020845581202,39.93329053929597,1519 Reed St,1.0,Basic,19146
497,-75.14451111678811,39.98953710181668,701 W Cumberland St,1.0,Basic,19133
498,-75.21444585750666,39.948977481415035,4533 Baltimore Ave,1.0,Basic,19143
499,-75.22829763747613,39.91851311860749,6600 Guyer Ave,3.0,Enhanced,19142
500,-75.22459407887091,39.96110313480847,61 N 52nd St,3.0,Enhanced,19139
501,-75.17994953544547,39.9341576507125,1426 Point Breeze Ave,,,19146
502,-75.15357094004355,39.9657958569322,727 N 10th St,3.0,Certification,19123
503,-75.17414147507326,39.980841455866795,2401 Cecil B Moore Ave,3.0,Enhanced,19121
504,-75.15376825354501,39.928570367531535,1600 S 5th St,3.0,Enhanced,19148
505,-75.15655150668108,40.05187223282585,2126 E Chelten Ave,3.0,Enhanced,19138
506,-75.02965844969751,40.04091830610207,7918 Frankford Ave,2.0,Basic,19136
507,-75.14862747181171,39.940698048918435,339 Bainbridge St,3.0,Enhanced,19147
508,-75.1483705553456,39.93637374515798,246 Christian St,3.0,Enhanced,19147
509,-75.1182383845464,39.99379036167605,3001 Kensington Ave,3.0,Certification,19134
510,-75.13992124971055,39.96961748175504,209 W Girard Ave,2.0,Basic,19123
511,-75.10491302701219,40.042586080435356,5754 Rising Sun Ave,3.0,Enhanced,19120
512,-75.10991879871177,40.02726228415881,5087 F St,1.0,Basic,19124
513,-75.12806565022454,40.00152740142415,116 E Ontario St,3.0,Enhanced,19134
514,-75.12478065215373,40.00119341398515,3400 B St,2.0,Basic,19134
515,-75.15675276875264,40.00685486096366,1701 W Tioga St,3.0,Enhanced,19140
516,-75.14770953639467,39.973103507792075,1400 N 7th St,2.0,Basic,19122
517,-75.18440144200423,39.928759201787045,1901 S Bonsall St,2.0,Basic,19145
518,-75.22135906599814,39.93464972034495,5540 Woodland Ave,1.0,Basic,19143
519,-75.16082577784222,39.925729233562755,1900 S 9th St,2.0,Basic,19148
520,-75.18076268267187,39.93495358124299,1341 S 22Nd St,2.0,Basic,19146
521,-75.23312736077528,39.97355642453708,5601 Master St,2.0,Basic,19131
522,-75.11519055041803,40.0250388789571,5000 Gransback St,3.0,Enhanced,19120
523,-75.17509725044506,39.93700840322247,1201 S 19Th St,1.0,Basic,19146
524,-75.16185885044227,39.92837932285117,1700 S 10th St,1.0,Certification,19148
525,-75.14010036268604,40.01259400507399,715 W Luzerne St,2.0,Basic,19140
526,-75.15898455588791,39.91952802113957,2348 S 7Th St,3.0,Enhanced,19148
527,-75.14674293230279,40.004996324665015,3428 N 11Th St,2.0,Basic,19140
528,-75.1763823304517,40.00469236778348,2839 W Allegheny Ave,2.0,Basic,19132
529,-75.22645893936601,39.96186888021252,101 N 53rd St,2.0,Basic,19139
530,-75.17642978247001,39.97542198196627,2438 W Thompson St,3.0,Enhanced,19121
531,-75.18531121197113,39.99630608912477,2601 N 33rd St,3.0,Enhanced,19132
532,-75.17254067773275,39.997951458321815,2513 W Somerset St,1.0,Basic,19132
533,-75.18205234364558,39.981433370907396,1646 N 29Th St,3.0,Enhanced,19121
534,-75.1493146570452,40.057000773140224,6731 Ogontz Ave,2.0,Basic,19126
535,-75.18032845575736,39.98163437593276,1700 N 28th St,2.0,Basic,19121
536,-75.1265314121234,40.02045682749646,4600 Rising Sun Ave,3.0,Enhanced,19140
537,-75.1822089795909,39.99278904185944,3034-36 W York Street,3.0,Enhanced,19132
538,-75.11669446590673,39.99140521655055,2000 E Orleans St,1.0,Basic,19134
539,-75.23417673979537,39.91525206482042,6935 Dicks Ave,1.0,Basic,19142
540,-75.1041140305361,40.00794849830852,1219 E. Luzerne Street,3.0,Enhanced,19124
541,-75.14368270218571,40.05493827232421,1545 Kinsdale St,2.0,Basic,19126
542,-75.14430058202959,39.97015989991095,441 W Girard Ave,3.0,Enhanced,19123
543,-75.1406413277883,40.01347987802069,4056 N 8Th St,3.0,Enhanced,19140
544,-75.15963503122518,39.937994707104714,1001 S 10th St,2.0,Basic,19147
545,-75.19272204542193,39.966235230372355,3412 Fairmount Ave,2.0,Basic,19104
546,-75.23024731070721,39.93251588393024,6000 Kingsessing Ave,2.0,Basic,19142
547,-75.15897554005105,39.92630694280806,1815 S 8Th St,2.0,Basic,19148
548,-75.18020474348022,39.97730018408592,1400 N Etting St,1.0,Basic,19121
549,-75.1606175214359,39.96632940125351,676 N Broad St,3.0,Enhanced,19130
550,-75.22967179052061,39.93677297469233,1801 S 58th St,3.0,Enhanced,19143
551,-75.21939860389918,39.93615075268054,5411 Woodland Ave,2.0,Basic,19143
552,-75.1218295596446,40.02386645384362,4847 A St,2.0,Basic,19120
553,-75.13045509366931,39.99328766586158,2852 N Front St,3.0,Enhanced,19133
554,-75.16705698961654,39.92409270177385,1247 Snyder Ave,2.0,Basic,19148
555,-75.1710655732313,39.93080126242936,1526 Tasker St,2.0,Basic,19145
556,-75.14026633146543,39.98745497044106,425 W York St,3.0,Enhanced,19133
557,-75.15985198487081,39.922849186174375,2108 S 8Th St,3.0,Enhanced,19148
558,-75.21436689348667,39.95710895299021,4630-32 Chestnut St,1.0,Basic,19139
559,-75.11757572291378,40.0244579212216,4948 C St,1.0,Basic,19120
560,-75.16962987574084,39.93070109705104,1443 Tasker St,2.0,Basic,19145
561,-75.12955084471704,39.996986531829855,3101 N Front St,3.0,Enhanced,19133
562,-75.23342116140495,39.92009239356034,6715 Elmwood Ave,3.0,Enhanced,19142
563,-75.1593064247502,39.91789184929534,700 W Porter St,2.0,Basic,19148
564,-75.17499882847594,39.98253950103382,2449 Ridge Avenue,3.0,Enhanced,19121
565,-75.11223679719434,39.995138194690014,1900 E Allegheny Ave,1.0,Basic,19134
566,-75.05846230449603,40.01803635798663,6017 Torresdale Ave,2.0,Basic,19135
567,-75.23066721540026,39.92204001048185,6523 Elmwood Ave,1.0,Basic,19142
568,-75.0910506428077,40.03305164700255,899 Brill St,3.0,Enhanced,19124
569,-75.21718127816054,39.937710000856534,5227 Woodland Ave,3.0,Enhanced,19143
570,-75.23519733081444,39.949931736947725,5600 Catharine St,3.0,Enhanced,19143
571,-75.03843699070055,40.037707257291906,7370 Frankford Ave,2.0,Basic,19136
572,-75.2252425987502,39.938127312637626,5533 Chester Ave,3.0,Enhanced,19143
573,-75.23607319870214,39.92442331318187,6621 Woodland Ave,2.0,Basic,19142
574,-75.1910448601081,39.92709549538611,2700 Snyder Ave,2.0,Certification,19145
575,-75.16847468387118,39.91779225209473,2600 S Iseminger St,1.0,Basic,19148
576,-75.10271632456016,40.00866926690941,4062 L St,3.0,Enhanced,19124
577,-75.15606668010571,39.93269996117159,701 Wharton St,1.0,Basic,19147
578,-75.07422969433473,40.02883626867074,5934 Bustleton Ave.,3.0,Enhanced,19149
579,-75.2419020745667,39.956796194181315,284 S 60th St,1.0,Basic,19139
580,-75.2419020745667,39.956796194181315,284 S 60th St,1.0,Basic,19139
581,-75.09213124563693,39.988636170666666,3623 Salmon St,2.0,Basic,19134
582,-75.1295934271526,40.03637867374288,425 W Olney St,3.0,Enhanced,19120
583,-75.12199836016681,39.993874810319426,2963 D St,2.0,Basic,19134
584,-75.03238780174868,40.03680150172947,4345 Chippendale St,3.0,Enhanced,19136
585,-75.0811248305573,40.04400455895975,1200 Greeby St,1.0,Basic,19111
586,-75.16597567945114,39.933992913309616,1311 Wharton St,3.0,Enhanced,19147
587,-75.12880590791427,40.00097153330332,3354 N Front St,1.0,Basic,19140
588,-75.15616125357776,40.057105144477376,6901 Rodney St,3.0,Enhanced,19138
589,-75.18561843739295,40.005785794062156,3420 Allegheny Ave,2.0,Basic,19132
590,-75.22584772266445,39.95563328763583,250 S 52nd St,3.0,Enhanced,19139
591,-75.10415909936745,40.011013977812055,1200 E Hunting Park Ave,3.0,Enhanced,19124
592,-75.04751358360512,40.02380770040713,6648 Torresdale Ave,3.0,Enhanced,19135
593,-75.13596503014004,39.97705750036592,1770 N Mascher St,3.0,Enhanced,19122
594,-75.08065009428341,40.06222381051491,7401 Bingham St,3.0,Enhanced,19111
595,-75.19484507663181,39.93454323614975,1548 S Corlies St,1.0,Basic,19146
596,-75.15243013079359,40.06330367658373,7155 Ogontz Ave,1.0,Basic,19138
597,-75.16612851497925,40.010198906882685,2236 Hunting Park Ave,3.0,Enhanced,19140
598,-75.17127444799078,40.00392915455424,2514 W Allegheny Ave,3.0,Enhanced,19132
599,-75.17727092785621,39.926995933642985,1939 S 19Th St,1.0,Basic,19145
600,-75.11767846926244,40.02070297498626,414 E Wyoming Ave,3.0,Enhanced,19120
601,-75.12958676586527,40.03629281635429,420 W Olney Ave,3.0,Enhanced,19120
602,-75.24368036867357,39.95800325501285,6100 Locust St,2.0,Basic,19139
603,-75.15907096964014,39.92586367882552,1839 S 8Th St,3.0,Enhanced,19148
604,-75.13277336815102,40.02636707697436,4936 N 5th St,3.0,Enhanced,19120
605,-75.0490290604566,40.02292264007617,6559 Torresdale Ave,3.0,Enhanced,19135
606,-75.1710228602299,39.98354570549306,2221 W Berks St,3.0,Enhanced,19121
607,-75.12107010688779,39.99843660963756,500 E Willard St,1.0,Basic,19134
608,-75.17663481649984,39.9767521832696,2500 W Master St,3.0,Enhanced,19121
609,-75.12375444020385,40.023917408719846,4831 Rising Sun Ave.,3.0,Enhanced,19120
610,-75.18844451395411,40.014245315897654,3539 Vaux St,3.0,Enhanced,19129
611,-75.23422950688534,39.954583104558495,5601 Pine St,2.0,Basic,19143
612,-75.14663217312345,40.063780565810156,1847 72nd Ave,3.0,Enhanced,19126
613,-75.15061182636529,39.91685047048985,153 W Porter St,1.0,Basic,19148
614,-75.23305831937138,39.97677403025957,5549 Lansdowne Ave,1.0,Basic,19131
615,-75.16273928946208,39.99669120482153,1915 W Somerset St,1.0,Basic,19132
616,-75.14762394353131,39.99429142377764,2756 Germantown Ave,1.0,Basic,19133
617,-75.17404604933513,39.983922146923526,1900 N Ringgold St,2.0,Basic,19121
618,-75.1740362780182,39.996321987246695,2684 N 26th St,2.0,Basic,19132
619,-75.14920338016941,39.998010419626496,1149 West Indiana Ave,2.0,Basic,19133
620,-75.16076833044897,39.99107028957217,2466 N Colorado St,2.0,Basic,19132
621,-75.18410550906052,39.99463595477221,2500 N 32nd St,1.0,Basic,19132
622,-75.21767037430922,39.956034986826225,4801 Walnut St,1.0,Basic,19139
623,-75.1362507077685,39.96900821437268,1204 N Front St,2.0,Basic,19122
624,-75.15669088752202,39.961867335209455,1137 Spring Garden St,3.0,Certification,19123
625,-75.17968732836947,39.970287764169356,2600 Brown St,1.0,Basic,19130
626,-75.17517594864748,39.97992721699244,2454 Turner St,1.0,Basic,19121
627,-75.26682066529602,39.977984489370414,7540 Haverford Ave,2.0,Basic,19151
628,-75.22819261155107,39.944091491093296,5400 Willows Ave,2.0,Basic,19143
629,-75.22447768344306,39.926274898869536,6053 Elmwood Ave,3.0,Enhanced,19142
630,-75.13594505623139,40.02624085231678,659 W Rockland St,3.0,Enhanced,19120
631,-75.21685826263587,39.95343044144153,4734-40 Spruce Street,3.0,Enhanced,19139
632,-75.24038616515973,39.924334727625755,2024 S 68th St,1.0,Basic,19142
633,-75.19051811547956,39.9370965820061,1300 S 28Th St,1.0,Basic,19146
634,-75.08989455689111,40.034233233257865,898 Anchor St,1.0,Basic,19124
635,-75.18338744310464,40.00550000914692,3300 W Allegheny Ave,3.0,Enhanced,19132
636,-75.21357401993333,39.94897573871278,4520 Baltimore Ave,1.0,Basic,19143
637,-75.0880466448987,40.01477125132579,1500 Sellers St,1.0,Basic,19124
638,-75.2312148126322,39.976975871995684,5455 Lansdowne Ave,2.0,Basic,19131
639,-75.12701933211979,39.99361100194653,241 E Cambria St,1.0,Basic,19134
640,-75.16802098133051,39.916997125087576,2655 S Camac St,2.0,Basic,19148
641,-75.15845533364062,39.92918918305667,1600 S 8Th St,1.0,Basic,19148
642,-75.13986412837431,40.01100878212252,3900 N 7Th St,3.0,Enhanced,19140
643,-75.22876423136009,39.97116443522649,5401 W Girard Ave,2.0,Basic,19131
644,-75.03344915058467,40.037862362023226,4244 Chippendale St,2.0,Basic,19136
645,-75.1343236937475,40.001571743800376,230 West Wensley Street,2.0,Basic,19140
646,-75.2375141516702,39.97306723900715,5845 Master St,2.0,Basic,19131
647,-75.17043556403132,39.96632858844657,2000 Wallace St,3.0,Certification,19130
648,-75.16921760820506,40.026292348225226,5101 Wayne Ave,3.0,Enhanced,19144
649,-75.1677520126057,40.025497268254455,5007 Wayne Ave,1.0,Certification,19144
650,-75.17391606981069,40.02882905706064,5348 Wayne Ave,2.0,Basic,19144
651,-75.1216324015432,39.99564116261333,3061 D St,3.0,Enhanced,19134
652,-75.1683516060173,39.99989724585181,2964 N 23rd St,3.0,Enhanced,19132
653,-75.24486734280806,39.962005920645964,18 S 62nd St,3.0,Enhanced,19139
654,-75.1504989782887,39.93195721094505,349 Wharton St,2.0,Basic,19147
655,-75.15992654918956,39.914695087524095,2747 S 7th St,3.0,Enhanced,19148
656,-75.16033434054883,39.920628711759136,2300 S 8Th St,2.0,Basic,19148
657,-75.16651534414298,39.921416165161695,2301 S 12th St,3.0,Enhanced,19148
658,-75.16369633921919,40.04484406591787,5637 Chew Ave,3.0,Enhanced,19138
659,-75.16861974596206,39.995822934626545,2227 W Lehigh Ave,3.0,Enhanced,19132
660,-75.09054676137293,40.01423946897413,1362 Unity St,1.0,Basic,19124
661,-75.17867028093654,39.98261252448896,1754 N 27th St,2.0,Basic,19121
662,-75.17268733048118,39.97766617352931,2236 W Jefferson St,1.0,Basic,19121
663,-75.16480110119737,39.97043514494491,1700 Ridge Ave,2.0,Basic,19130
664,-75.17565998176165,39.99637321744664,2668 N 27th St,2.0,Basic,19132
665,-75.14378598909956,39.995689219937155,716 W Cambria St,2.0,Basic,19133
666,-75.02971614170728,40.032908022052716,7601 Torresdale Ave,3.0,Enhanced,19136
667,-75.23142333147939,39.98475798874735,1823 N 54th St,2.0,Basic,19131
668,-75.24256469830381,39.91366238012209,7333 Elmwood Ave,3.0,Enhanced,19142
669,-75.14655645600818,39.9758287447636,643 W Oxford Avenue,3.0,Enhanced,19122
